ONEWEB-0249             
1 48967U 21060A   24220.85522908  .00000042  00000+0  76546-4 0  9999
2 48967  87.9141   3.8292 0001799  96.3519 263.7817 13.16595944150354
ONEWEB-0250             
1 48968U 21060B   24221.58335648 -.00035904  00000+0 -82625-1 0  9993
2 48968  87.9144   3.6414 0001463 108.4207 341.0051 13.25530761  5174
ONEWEB-0252             
1 48970U 21060D   24221.41887525 -.00000140  00000+0 -39940-3 0  9992
2 48970  87.9141   3.7101 0001763  90.9048 269.2285 13.16595105150476
ONEWEB-0253             
1 48971U 21060E   24221.40778821 -.00000090  00000+0 -27017-3 0  9996
2 48971  87.9141   3.7235 0001478  93.0609 267.0691 13.16595482150403
ONEWEB-0254             
1 48972U 21060F   24221.41728598 -.00000058  00000+0 -18504-3 0  9999
2 48972  87.9140   3.7003 0001472  94.0569 266.0730 13.16595831150407
ONEWEB-0255             
1 48973U 21060G   24220.84732308  .00000026  00000+0  33146-4 0  9993
2 48973  87.9138   3.8478 0001812  98.4197 261.7140 13.16594487150408
ONEWEB-0256             
1 48974U 21060H   24221.40542722  .00000083  00000+0  18477-3 0  9998
2 48974  87.9145   3.7419 0001907  91.4334 268.7016 13.16594500150441
ONEWEB-0257             
1 48975U 21060J   24221.43788251  .00000004  00000+0 -22682-4 0  9999
2 48975  87.9140   3.7047 0001738  90.6706 269.4624 13.16594017150402
